#dP2021  8  7 18  0  0.00000000      96 __u+U ITR00 EXT  IAC
## 2169 583200.00000000   900.00000000 59433 0.7500000000000
+  113   C07C08C09C10C11C12C13C14C16C19C20C21C22C23C24C25C26
+        C27C28C29C30C32C33C34C35C36C37C38C40C41C42C43C44C45
+        C46E01E02E03E04E05E07E08E09E11E12E13E14E15E18E19E21
+        E24E25E26E27E30E31E33E36G01G02G04G05G06G07G08G09G10
+        G12G13G14G15G16G17G18G19G20G21G22G23G24G25G26G27G28
+        G29G30G31G32J01J02J03R01R02R03R04R05R07R08R09R11R12
+        R13R14R15R16R17R18R19R20R21R22R24  0  0  0  0  0  0
++         9  9  9 10  8  8  8 15  9  9 10  8  8  9  8  7  8
++         9  8  8  7  8  8  9  9  8  9 11 11  8  9  8 10  8
++         8  7  7  8  8 10  8  8  7  8  8  8  7  8  9  9  7
++         7  9  9  7  7  7  8  9  7  8  9  6  8  7  8  7  9
++         8  7  8  7  8  8  8  9  8  8  8  8  7  8  7  8  8
++         9  7  8  7 10 10 10  9  9  8  7  8 10  7  9  8  8
++         7 10  8  8  9  7  8  8  8  8  9  0  0  0  0  0  0
%c M  cc GPS ccc cccc cccc cccc cccc ccccc ccccc ccccc ccccc
%c cc cc ccc ccc cccc cccc cccc cccc ccccc ccccc ccccc ccccc
%f  0.0000000  0.000000000  0.00000000000  0.000000000000000
%f  0.0000000  0.000000000  0.00000000000  0.000000000000000
%i    0    0    0    0      0      0      0      0         0
%i    0    0    0    0      0      0      0      0         0
/* IAC                                ULTRA-RAPID PREDICTION
/* S/V CLOCKS ARE ALIGNED TO GNSS TIME                      
/* G:C1WC2W R:C1PC2P E:C1XC5X C:C2IC6I J:C1CC2S             
/* PCV:IGS14_2163 OL/AL:FES2004  NONE     YN ORB:CoN CLK:CoN
*  2021 08 07 19  0  0.00000000
PC07  -7864.068414  29325.379450  29737.605551     35.790091
PC08 -21391.293745  19435.771985 -30730.488547   -916.907558
PC09  -8584.827050  37869.914999  16194.388156     -9.304749
PC10   4282.696705  35474.985405  22980.702670    -10.823349
PC11   7732.770433 -24750.416709  10305.405933    503.507474
PC12  18041.118767 -19960.824159  -7320.564722    788.696927
PC13  -5230.293794  22807.809173 -35016.727887    365.251027
PC14  -2877.970959 -24268.771654  13436.505180    739.361724
PC16 -16750.697271  38412.287293   3632.139197   -873.488150
PC19  10558.329235  25421.797500  -4631.891154    938.311617
PC20  -3534.613818  20296.005854 -18827.749899   -825.022700
PC21  16316.362192  -2634.060994  22502.178357   -939.285962
PC22  18979.196690  16051.871608  12714.765809   -949.812762
PC23 -24530.022266  -8140.885197 -10506.511966   -962.945817
PC24  13865.934215 -13886.536403 -19830.289374   -964.153623
PC25  -8829.830991 -15396.994018 -21537.826258   -873.845349
PC26  26391.076481  -5251.420155  -7334.756131    867.692274
PC27 -19952.849000  12365.350228  15060.975991    577.162473
PC28 -14409.803347  -6794.988424  22910.843490    -41.263467
PC29   1252.359941  21908.315141 -17251.351687    430.205016
PC30 -13216.540585  24547.824857  -1008.433799    476.694886
PC32 -16298.377570   2751.185243 -22471.051789   -929.236062
PC33 -10599.435457 -25363.305411   4744.688870   -953.453196
PC34  12812.851678 -24738.447280   1757.824914   -610.277378
PC35  14493.271011   6714.528762 -22892.236719   -150.467077
PC36   8008.708239  15683.748690  21680.900644   -740.721846
PC37 -26851.591252   4049.385714   6490.278510   -861.795236
PC38 -18693.390431  22302.307342 -30558.466238    167.030822
PC40    928.914178  33002.617590  26357.464088    188.100808
PC41 -18966.337175 -16272.277062 -12375.012016   -966.651476
PC42   4274.003167 -19730.614613  19297.328279   -929.398256
PC43   -744.393849 -22264.756142  16806.900285   -857.273480
PC44  19626.230545 -12812.508739 -15178.813774    329.306757
PC45  24617.151913   7973.592141  10439.723267    514.455192
PC46 -12738.647303  14175.097251  20409.398285    142.813077
PE01   -575.293498  17897.912710  23577.135834  -1166.751386
PE02    410.818317 -17950.988335 -23528.082700    238.329143
PE03   3190.784690 -28929.505618   5344.044689   -461.184211
PE04   9469.990490  25016.882362  12686.696746   -830.067043
PE05  14188.082781 -15916.166323  20532.594543   -259.051991
PE07 -16783.294975  -6200.652549 -23572.487572   -571.020286
PE08  -9703.428835 -24735.922807 -13026.370527   5957.816280
PE09  16696.515076   5944.284039  23715.057389   5573.939850
PE11  24178.655213  -1823.655740 -16998.432732   5610.453586
PE12   8666.216387  13680.024878 -24784.388160   5071.919916
PE13 -23931.393945   1577.571462  17346.362789    419.998828
PE14  -9372.325321  26307.351061   4268.658786  -1527.490486
PE15  -8680.199554 -13575.362990  24828.694655    799.228663
PE18  17179.149539 -17367.242648 -15407.994493  -1674.990165
PE19  -4699.605739  28239.762266  -7520.943564    346.471927
PE21 -18884.385449   6444.829922  21868.285566   -680.672150
PE24  27059.320884  10022.660517  -6563.495076  -1050.326679
PE25  19055.666204  -6263.286870 -21755.992046   -542.500569
PE26 -24789.238687  16139.336281  -1230.544797   1488.333440
PE27 -27119.781644  -9238.538420   7454.382455    -92.848523
PE30 -18406.290696 -19742.855941 -12158.599315   2720.604932
PE31  19336.455545  19387.124743  11262.174799   -484.138656
PE33 -11643.809277  20695.763060 -17672.981278   -466.584811
PE36  25059.533045 -15752.483027    313.188586   -245.214052
PG01  -1303.546418  15760.363672 -21550.605142    604.532487
PG02  21239.608968 -14961.060154   6339.829574   -624.837647
PG04     34.345551  25608.399932   6930.677948   -203.624194
PG05   5171.376158 -14809.147100  21249.003298    -50.382797
PG06  25358.642770  -5984.719580  -5252.145590     52.237805
PG07  14691.549794   9927.318062  20282.365959    220.031346
PG08  -6325.241303  25294.611891   4087.569606    -31.741721
PG09   8808.250764  19209.468616  16012.788346   -358.134236
PG10 -22823.697073 -10157.025382  -9301.679500   -177.825232
PG12  -5118.326743 -20302.781076 -16671.313473    -79.645630
PG13  13129.512995 -20771.911265   9752.388593    168.214231
PG14  22372.642870  10394.359554  -9909.845375     29.072163
PG15   3343.521333 -25912.327394   3206.918583   -130.008599
PG16 -11776.684140   9200.145907  21732.650376   -369.924097
PG17  13569.736221   5723.539131 -21674.655218    485.852897
PG18 -16484.130622  -8080.035098  19210.697796    334.820239
PG19  15793.564775  -4043.516185 -21214.960862     36.609252
PG20  15946.430356  -7423.666338  19796.178923    519.778398
PG21  -9516.064612  17478.250483 -16628.171088    135.905755
PG22     53.597405  17492.051599 -19862.757310   -543.993971
PG23 -20428.065460 -16957.492833   1539.080230     73.921985
PG24   5448.303578 -17984.391148 -18873.162997    201.222909
PG25 -15427.392883 -20118.624596  -8623.154476    187.189073
PG26 -20152.225981    904.693460  17354.966890    119.939259
PG27 -12016.766245  19375.128823  13131.183658   -174.852796
PG28  20773.609419   6328.685146 -14614.645973    524.020725
PG29  -5438.249864 -21074.359639  15130.308680   -392.610951
PG30  23496.863164   1418.740355  12599.355513   -459.664984
PG31 -25757.455290   6712.729788  -3327.469800   -133.001123
PG32 -15113.288277  -1877.689422 -21643.536805      9.304673
PJ01 -19141.892790  26198.917866 -22379.678782   -433.923808
PJ02 -28298.108783  20605.143088  28427.293427     -1.362355
PJ03 -32614.598484  26318.442471  10223.370607     -0.624342
PR01  10542.347138  22740.591355   4777.108861     83.479735
PR02  12717.463255   7232.404798  20919.078298    488.864866
PR03   7157.067736 -11265.455218  21790.096885     40.870195
PR04  -2428.156174 -23123.844043  10525.098255     99.199245
PR05 -10534.924895 -22276.225413  -6627.451578     76.744770
PR07  -6835.356954  11817.948785 -21501.200219    -41.742618
PR08   2501.774151  23154.020806 -10329.099426    -60.261289
PR09 -25109.009425  -3952.555605   1614.000352      6.908211
PR11  -1211.753601  10862.510670  23063.174534     45.946033
PR12  17274.343500  10904.825832  15298.888515    251.751037
PR13  25121.424133   4374.339253   -784.512142    -58.818639
PR14  18105.085814  -4918.759202 -17274.118413     67.383493
PR15    744.778244 -11060.021295 -22946.413696    102.226081
PR16 -18513.101451 -10321.299934 -14300.727647    -19.181027
PR17  18316.460040 -16956.686577  -5140.297846    447.818024
PR18  10990.578924 -19899.076524  11624.758338     86.132388
PR19  -1159.257583 -12916.275250  21956.335617   -154.524872
PR20 -15514.907655   3417.147505  19945.595005    -53.766522
PR21 -18153.422671  17526.823795   3848.417653   -229.778991
PR22 -10350.291311  19597.018631 -12569.108397   -126.683666
PR24  16084.116214  -4054.395318 -19360.150043     53.593879
EOF
